NOAA 18                 
1 28654U 05018A   17346.50820152  .00000027  00000-0  40086-4 0  9994
2 28654  99.1678  12.9527 0013465 292.7637  67.2110 14.12360284647429
